// Global variables
let map;
let satellites = [];
let satelliteCircleMarkers = {}; // Store circle markers by PRN for easy lookup (PERSISTENT)
let satelliteTrailLines = []; // Store trail polylines (cleared each update)
let satelliteTrails = {}; // Store trail coordinates for each satellite
let userLocation = { lat: 0, lon: 0 };
let connectedPRNs = [];
let gpsData = {}; // Stores PRN -> {elevation, azimuth, snr, used}
let updateInterval;
let mapStyle = 'dark'; // 'dark', 'light', 'natgeo', or 'space'
let lightTileLayer;
let darkTileLayer;
let natgeoTileLayer;
let spaceTileLayer;
let spaceOverlayMarkers = [];
let firstGPSFix = true; // Only auto-center on first GPS fix
let showTrails = true;
let openPopupPRN = null; // Track which satellite popup is open

// Serial port variables
let port;
let reader;
let isReading = false;
let nmeaBuffer = '';

// TLE data embedded (will load from file)
const TLE_DATA = `GPS BIIR-2  (PRN 13)
1 24876U 97035A   25316.81786533  .00000057  00000+0  00000+0 0  9999
2 24876  55.8805 107.0391 0096491  56.9975 303.9217  2.00563366207613
GPS BIIR-4  (PRN 20)
1 26360U 00025A   25318.68574779 -.00000109  00000+0  00000+0 0  9995
2 26360  55.0291  27.9728 0038526 239.3029 121.7467  2.00570078186976
GPS BIIR-5  (PRN 22)
1 26407U 00040A   25318.14910147 -.00000040  00000+0  00000+0 0  9992
2 26407  54.8983 223.7056 0127613 301.2562 231.9061  2.00567536185631
GPS BIIR-8  (PRN 16)
1 27663U 03005A   25318.73366105 -.00000036  00000+0  00000+0 0  9990
2 27663  54.9310 223.4921 0146247  51.3943 319.3519  2.00572438167017
GPS BIIR-11 (PRN 19)
1 28190U 04009A   25318.00069429 -.00000061  00000+0  00000+0 0  9998
2 28190  55.0114 284.3769 0107970 167.1336 194.2094  2.00561848158634
GPS BIIR-13 (PRN 02)
1 28474U 04045A   25318.41226932 -.00000080  00000+0  00000+0 0  9993
2 28474  55.2541 333.5457 0169995 308.0603  49.8681  2.00568202154111
GPS BIIRM-1 (PRN 17)
1 28874U 05038A   25318.46604652 -.00000065  00000+0  00000+0 0  9997
2 28874  55.0569 281.8390 0133270 292.9131  63.7477  2.00550100147521
GPS BIIRM-2 (PRN 31)
1 29486U 06042A   25316.62700956  .00000059  00000+0  00000+0 0  9995
2 29486  54.6900 159.9361 0107278  51.1601 321.0774  2.00555245140050
GPS BIIRM-3 (PRN 12)
1 29601U 06052A   25318.02995973 -.00000039  00000+0  00000+0 0  9995
2 29601  54.9775 222.5375 0086917  87.1641 273.8730  2.00571597139099
GPS BIIRM-4 (PRN 15)
1 32260U 07047A   25318.83340003  .00000001  00000+0  00000+0 0  9990
2 32260  53.9360  88.9109 0164586  84.8625 276.9960  2.00565659132518
GPS BIIRM-5 (PRN 29)
1 32384U 07062A   25318.39050698 -.00000064  00000+0  00000+0 0  9993
2 32384  55.2071 282.7826 0032213 163.4121   6.8163  2.00575891131204
GPS BIIRM-6 (PRN 07)
1 32711U 08012A   25317.75661220  .00000074  00000+0  00000+0 0  9991
2 32711  54.4723 158.5302 0201431 244.6502 113.3165  2.00564316129435
GPS BIIRM-8 (PRN 05)
1 35752U 09043A   25318.24479083 -.00000102  00000+0  00000+0 0  9996
2 35752  56.0720  35.9068 0052645  82.2390 288.2660  2.00567416119050
GPS BIIF-1  (PRN 25)
1 36585U 10022A   25318.31553006 -.00000029  00000+0  00000+0 0  9994
2 36585  54.3057 217.2201 0124738  64.7412 116.4422  2.00551723113287
GPS BIIF-3  (PRN 24)
1 38833U 12053A   25318.43260264  .00000086  00000+0  00000+0 0  9994
2 38833  53.5522 152.3982 0174866  63.5419 298.3061  2.00564786 95134
GPS BIIF-4  (PRN 27)
1 39166U 13023A   25318.29633698 -.00000065  00000+0  00000+0 0  9999
2 39166  54.6766 277.7239 0136178  48.3361 312.8056  2.00565253 91574
GPS BIIF-5  (PRN 30)
1 39533U 14008A   25318.29184903  .00000079  00000+0  00000+0 0  9995
2 39533  53.6259 158.0851 0078601 226.1992 133.2163  2.00572824 85378
GPS BIIF-6  (PRN 06)
1 39741U 14026A   25318.07444445 -.00000081  00000+0  00000+0 0  9996
2 39741  56.5938 339.8918 0038257 317.4073  42.3397  2.00563410 84228
GPS BIIF-7  (PRN 09)
1 40105U 14045A   25318.16354177  .00000030  00000+0  00000+0 0  9998
2 40105  55.2117  97.0388 0033210 119.0355 241.2862  2.00570773 81769
GPS BIIF-8  (PRN 03)
1 40294U 14068A   25315.54706351 -.00000084  00000+0  00000+0 0  9996
2 40294  56.8357  39.3526 0060976  69.6991 290.9826  2.00562775 80841
GPS BIIF-9  (PRN 26)
1 40534U 15013A   25318.66895414 -.00000019  00000+0  00000+0 0  9997
2 40534  53.2031 213.0526 0105730  37.7488 323.0471  2.00564246 77524
GPS BIIF-10 (PRN 08)
1 40730U 15033A   25318.83049045 -.00000070  00000+0  00000+0 0  9994
2 40730  54.1550 275.9207 0109201  26.1550 334.3742  2.00567013 75697
GPS BIIF-11 (PRN 10)
1 41019U 15062A   25318.39112593 -.00000099  00000+0  00000+0 0  9998
2 41019  56.8123  39.0988 0109886 229.2084 129.8599  2.00567097 73524
GPS BIIF-12 (PRN 32)
1 41328U 16007A   25314.98304705  .00000034  00000+0  00000+0 0  9998
2 41328  55.3876  98.1172 0090614 242.9006 116.1610  2.00562288 71462
GPS BIII-1  (PRN 04)
1 43873U 18109A   25318.86000715  .00000035  00000+0  00000+0 0  9996
2 43873  55.5519 100.6471 0036806 193.9241 339.9573  2.00552925 50776
GPS BIII-2  (PRN 18)
1 44506U 19056A   25318.49198990 -.00000083  00000+0  00000+0 0  9998
2 44506  55.7309 339.6742 0057680 197.9135 326.0368  2.00565462 45765
GPS BIII-3  (PRN 23)
1 45854U 20041A   25315.34640374 -.00000086  00000+0  00000+0 0  9993
2 45854  56.5258  37.4081 0059720 202.2054 154.9948  2.00562398 39669
GPS BIII-4  (PRN 14)
1 46826U 20078A   25316.12603230 -.00000034  00000+0  00000+0 0  9993
2 46826  54.0224 219.5836 0063912 203.4991 326.7749  2.00567032 37157
GPS BIII-5  (PRN 11)
1 48859U 21054A   25318.37755933 -.00000086  00000+0  00000+0 0  9990
2 48859  55.2660 341.0928 0024495 231.9355 310.9286  2.00555100 32449
GPS BIII-6  (PRN 28)
1 55268U 23009A   25316.33169645  .00000060  00000+0  00000+0 0  9998
2 55268  55.0992 157.0398 0003679 359.6076 188.1072  2.00558164 20899
GPS BIII-7  (PRN 01)
1 62339U 24242A   25318.20947369 -.00000088  00000+0  00000+0 0  9991
2 62339  54.9317 342.8960 0010621 342.2154 197.7285  2.00567218  6946
GPS BIII-8  (PRN 21)
1 64202U 25116A   25318.68876968 -.00000100  00000+0  00000+0 0  9996
2 64202  55.0858  39.7738 0004570 301.6372  54.7068  2.00560100  3560`;
